GLOBALSTAR M045 [-]     
1 25676U 99019A   24005.93105619 -.00000043  00000+0  44602-3 0  9995
2 25676  51.9993  10.8660 0000542 264.5963 177.9359 12.27024502128547
GLOBALSTAR M019 [-]     
1 25677U 99019B   24005.46017035 -.00000204  00000+0 -11908-2 0  9990
2 25677  51.9875 105.3778 0000270  48.1193  32.4890 12.13848604120938
GLOBALSTAR M044 [-]     
1 25678U 99019C   24006.12589792 -.00000061  00000+0  31262-3 0  9995
2 25678  51.9997 348.8282 0006549 100.0906 340.2411 11.90226821108427
GLOBALSTAR M042 [-]     
1 25679U 99019D   24005.45681443 -.00000107  00000+0 -14063-3 0  9999
2 25679  52.0016 103.5332 0002247 283.0847 157.8764 12.22053953120619
GLOBALSTAR M025 [-]     
1 25770U 99031A   24005.92108203 -.00000064  00000+0  10975-3 0  9994
2 25770  51.9836 303.0315 0001709   3.8484 103.2419 11.22548334422386
GLOBALSTAR M049 [-]     
1 25771U 99031B   24005.21228137 -.00000056  00000+0  31597-3 0  9990
2 25771  51.9896 312.8526 0002474 202.3289 157.7400 11.12100612 58576
GLOBALSTAR M047 [-]     
1 25772U 99031C   24006.15579398 -.00000069  00000+0  14609-4 0  9993
2 25772  51.9864 358.1278 0016466  75.7936 284.4697 11.31917537 86082
GLOBALSTAR M052 [-]     
1 25773U 99031D   24005.51533411 -.00000084  00000+0 -60959-3 0  9995
2 25773  51.9883  68.2697 0002079  31.8857  78.4717 11.15047450419532
